HAWK-11C                
1 62381U 24247E   26068.51221537  .00009223  00000+0  33290-3 0  9992
2 62381  45.0045 114.8762 0005900 329.7040  30.3502 15.28848020 67743
STARLINK-34918          
1 65331U 25189J   26068.65901299  .00038964  00000+0  13208-2 0  9991
2 65331  53.1590 206.7702 0001231  69.9895 290.1238 15.30198722 31041
